{
    "links": {
        "self": "http://www.neowsapp.com/rest/v1/neo/3776645?api_key=iIulBulltgU6a56xZRHN4H3l9WmuAYTsLGpBGhQ2"
    },
    "id": "3776645",
    "neo_reference_id": "3776645",
    "name": "(2017 MD9)",
    "designation": "2017 MD9",
    "nasa_jpl_url": "http://ssd.jpl.nasa.gov/sbdb.cgi?sstr=3776645",
    "absolute_magnitude_h": 20.2,
    "estimated_diameter": {
        "kilometers": {
            "estimated_diameter_min": 0.2424124811,
            "estimated_diameter_max": 0.5420507863
        },
        "meters": {
            "estimated_diameter_min": 242.4124811008,
            "estimated_diameter_max": 542.0507863358
        },
        "miles": {
            "estimated_diameter_min": 0.1506280858,
            "estimated_diameter_max": 0.3368146392
        },
        "feet": {
            "estimated_diameter_min": 795.3165644948,
            "estimated_diameter_max": 1778.3819018419
        }
    },
    "is_potentially_hazardous_asteroid": false,
    "close_approach_data": [
        {
            "close_approach_date": "1992-08-07",
            "close_approach_date_full": "1992-Aug-07 20:37",
            "epoch_date_close_approach": 713219820000,
            "relative_velocity": {
                "kilometers_per_second": "6.5168111167",
                "kilometers_per_hour": "23460.5200200701",
                "miles_per_hour": "14577.4547869152"
            },
            "miss_distance": {
                "astronomical": "1.1695600411",
                "lunar": "454.9588559879",
                "kilometers": "174963690.985672457",
                "miles": "108717396.2858436266"
            },
            "orbiting_body": "Juptr"
        },
        {
            "close_approach_date": "2017-07-18",
            "close_approach_date_full": "2017-Jul-18 09:55",
            "epoch_date_close_approach": 1500371700000,
            "relative_velocity": {
                "kilometers_per_second": "26.4040437085",
                "kilometers_per_hour": "95054.5573506889",
                "miles_per_hour": "59063.2053715989"
            },
            "miss_distance": {
                "astronomical": "0.3914498124",
                "lunar": "152.2739770236",
                "kilometers": "58560058.146939588",
                "miles": "36387532.8201907944"
            },
            "orbiting_body": "Earth"
        },
        {
            "close_approach_date": "2170-08-29",
            "close_approach_date_full": "2170-Aug-29 09:27",
            "epoch_date_close_approach": 6332203620000,
            "relative_velocity": {
                "kilometers_per_second": "7.4694515065",
                "kilometers_per_hour": "26890.0254234167",
                "miles_per_hour": "16708.4160749003"
            },
            "miss_distance": {
                "astronomical": "1.6246192388",
                "lunar": "631.9768838932",
                "kilometers": "243039577.685501356",
                "miles": "151017790.7857604728"
            },
            "orbiting_body": "Juptr"
        }
    ],
    "orbital_data": {
        "orbit_id": "3",
        "orbit_determination_date": "2017-07-22 06:20:38",
        "first_observation_date": "2017-06-27",
        "last_observation_date": "2017-07-21",
        "data_arc_in_days": 24,
        "observations_used": 26,
        "orbit_uncertainty": "7",
        "minimum_orbit_intersection": ".169114",
        "jupiter_tisserand_invariant": "2.844",
        "epoch_osculation": "2459000.5",
        "eccentricity": ".7031529048033881",
        "semi_major_axis": "2.735329398430043",
        "inclination": "24.06595755828797",
        "ascending_node_longitude": "343.0476123852314",
        "orbital_period": "1652.39121210582",
        "perihelion_distance": ".8119745863298542",
        "perihelion_argument": "18.25218280730368",
        "aphelion_distance": "4.658684210530232",
        "perihelion_time": "2459635.897583140201",
        "mean_anomaly": "221.5684177846962",
        "mean_motion": ".2178660824159269",
        "equinox": "J2000",
        "orbit_class": {
            "orbit_class_type": "APO",
            "orbit_class_description": "Near-Earth asteroid orbits which cross the Earth’s orbit similar to that of 1862 Apollo",
            "orbit_class_range": "a (semi-major axis) > 1.0 AU; q (perihelion) < 1.017 AU"
        }
    },
    "is_sentry_object": false
}